ELECTRON R/B            
1 67229U 25307B   26014.95233656  .00838892  77855-5  13383-2 0  9990
2 67229  41.9920 333.0090 0138116  58.5498 302.8777 15.87254007  3871
ELECTRON KICK STAGE R/B 
1 67230U 25307C   26015.17198277  .05185697  82999-5  14173-2 0  9992
2 67230  41.9963 329.3936 0050156  97.9952 262.6613 16.23342232  2337
SPACEMOBILE-006         
1 67232U 25309A   26014.78318513 -.00000150  00000+0  83656-5 0  9997
2 67232  52.9987 313.8292 0011979  28.5701 331.5946 15.17741798  3295
LVM3 R/B                
1 67233U 25309B   26014.95490172  .00004771  00000+0  23539-3 0  9993
2 67233  52.9285 312.5282 0011734  54.0600 306.1481 15.19675457  3329
2025-310A               
1 67234U 25310A   26014.72283539  .00000009  00000+0  86937-5 0  9991
2 67234  97.9664  24.2349 0001912 179.1290 180.9923 14.75705364  2995
SL-4 R/B                
1 67235U 25310B   26013.52883765  .00292788  23993-5  59113-3 0  9999
2 67235  97.9611  25.1455 0269212   8.1947 352.3572 15.58601207  2948
HULIANWANG DIGUI-128    
1 67236U 25311A   26014.91562643 -.00000048  00000+0  79129-4 0  9999
2 67236  50.0102 316.2947 0006558 343.9922  16.0768 13.90210556  2789
HULIANWANG DIGUI-129    
1 67237U 25311B   26014.91689952 -.00000053  00000+0  74840-4 0  9994
2 67237  50.0091 316.2987 0007805 345.5602  14.5072 13.90166821  2786
HULIANWANG DIGUI-130    
1 67238U 25311C   26014.92355514 -.00000042  00000+0  83901-4 0  9996
2 67238  50.0071 316.3281 0007760 323.0121  37.0241 13.90218469  2784
HULIANWANG DIGUI-131    
1 67239U 25311D   26014.92666053 -.00000046  00000+0  80191-4 0  9992
2 67239  50.0067 316.3429 0009370 330.3801  29.6566 13.90205482  2787
HULIANWANG DIGUI-132    
1 67240U 25311E   26014.92048034 -.00000056  00000+0  72326-4 0  9999
2 67240  50.0079 316.3140 0008457 337.0656  22.9864 13.90231340  2788
HULIANWANG DIGUI-133    
1 67241U 25311F   26014.99053990 -.00000049  00000+0  77719-4 0  9997
2 67241  50.0123 316.0297 0007576 341.4917  18.5705 13.90209334  2793
