CCSDS_OMM_VERS = 2.0
CREATION_DATE  = 
ORIGINATOR     = 

OBJECT_NAME    = ELECTRON R/B
OBJECT_ID      = 2025-307B
CENTER_NAME    = EARTH
REF_FRAME      = TEME
TIME_SYSTEM    = UTC
MEAN_ELEMENT_THEORY = SGP/SGP4

EPOCH          = 2026-01-14T22:51:21.878784
MEAN_MOTION    = 15.87254007
ECCENTRICITY   = .01381166
INCLINATION    = 41.9920
RA_OF_ASC_NODE = 333.0090
ARG_OF_PERICENTER = 58.5498
MEAN_ANOMALY   = 302.8777

EPHEMERIS_TYPE = 0
CLASSIFICATION_TYPE = U
NORAD_CAT_ID   = 67229
ELEMENT_SET_NO = 999
REV_AT_EPOCH   = 387
BSTAR          = .13382618E-2
MEAN_MOTION_DOT = .838892E-2
MEAN_MOTION_DDOT = .7785482E-5

CCSDS_OMM_VERS = 2.0
CREATION_DATE  = 
ORIGINATOR     = 

OBJECT_NAME    = ELECTRON KICK STAGE R/B
OBJECT_ID      = 2025-307C
CENTER_NAME    = EARTH
REF_FRAME      = TEME
TIME_SYSTEM    = UTC
MEAN_ELEMENT_THEORY = SGP/SGP4

EPOCH          = 2026-01-15T04:07:39.311328
MEAN_MOTION    = 16.23342232
ECCENTRICITY   = .0050156
INCLINATION    = 41.9963
RA_OF_ASC_NODE = 329.3936
ARG_OF_PERICENTER = 97.9952
MEAN_ANOMALY   = 262.6613

EPHEMERIS_TYPE = 0
CLASSIFICATION_TYPE = U
NORAD_CAT_ID   = 67230
ELEMENT_SET_NO = 999
REV_AT_EPOCH   = 233
BSTAR          = .14173E-2
MEAN_MOTION_DOT = .5185697E-1
MEAN_MOTION_DDOT = .82999E-5

CCSDS_OMM_VERS = 2.0
CREATION_DATE  = 
ORIGINATOR     = 

OBJECT_NAME    = SPACEMOBILE-006
OBJECT_ID      = 2025-309A
CENTER_NAME    = EARTH
REF_FRAME      = TEME
TIME_SYSTEM    = UTC
MEAN_ELEMENT_THEORY = SGP/SGP4

EPOCH          = 2026-01-14T18:47:47.195232
MEAN_MOTION    = 15.17741798
ECCENTRICITY   = .00119798
INCLINATION    = 52.9987
RA_OF_ASC_NODE = 313.8292
ARG_OF_PERICENTER = 28.5701
MEAN_ANOMALY   = 331.5946

EPHEMERIS_TYPE = 0
CLASSIFICATION_TYPE = U
NORAD_CAT_ID   = 67232
ELEMENT_SET_NO = 999
REV_AT_EPOCH   = 329
BSTAR          = .8365645E-5
MEAN_MOTION_DOT = -.15E-5
MEAN_MOTION_DDOT = 0

CCSDS_OMM_VERS = 2.0
CREATION_DATE  = 
ORIGINATOR     = 

OBJECT_NAME    = LVM3 R/B
OBJECT_ID      = 2025-309B
CENTER_NAME    = EARTH
REF_FRAME      = TEME
TIME_SYSTEM    = UTC
MEAN_ELEMENT_THEORY = SGP/SGP4

EPOCH          = 2026-01-14T22:55:03.508608
MEAN_MOTION    = 15.19675457
ECCENTRICITY   = .00117345
INCLINATION    = 52.9285
RA_OF_ASC_NODE = 312.5282
ARG_OF_PERICENTER = 54.0600
MEAN_ANOMALY   = 306.1481

EPHEMERIS_TYPE = 0
CLASSIFICATION_TYPE = U
NORAD_CAT_ID   = 67233
ELEMENT_SET_NO = 999
REV_AT_EPOCH   = 332
BSTAR          = .23538642E-3
MEAN_MOTION_DOT = .4771E-4
MEAN_MOTION_DDOT = 0

CCSDS_OMM_VERS = 2.0
CREATION_DATE  = 
ORIGINATOR     = 

OBJECT_NAME    = 2025-310A
OBJECT_ID      = 2025-310A
CENTER_NAME    = EARTH
REF_FRAME      = TEME
TIME_SYSTEM    = UTC
MEAN_ELEMENT_THEORY = SGP/SGP4

EPOCH          = 2026-01-14T17:20:52.977696
MEAN_MOTION    = 14.75705364
ECCENTRICITY   = .0001912
INCLINATION    = 97.9664
RA_OF_ASC_NODE = 24.2349
ARG_OF_PERICENTER = 179.1290
MEAN_ANOMALY   = 180.9923

EPHEMERIS_TYPE = 0
CLASSIFICATION_TYPE = U
NORAD_CAT_ID   = 67234
ELEMENT_SET_NO = 999
REV_AT_EPOCH   = 299
BSTAR          = .869375E-5
MEAN_MOTION_DOT = .9E-7
MEAN_MOTION_DDOT = 0

CCSDS_OMM_VERS = 2.0
CREATION_DATE  = 
ORIGINATOR     = 

OBJECT_NAME    = SL-4 R/B
OBJECT_ID      = 2025-310B
CENTER_NAME    = EARTH
REF_FRAME      = TEME
TIME_SYSTEM    = UTC
MEAN_ELEMENT_THEORY = SGP/SGP4

EPOCH          = 2026-01-13T12:41:31.572960
MEAN_MOTION    = 15.58601207
ECCENTRICITY   = .02692124
INCLINATION    = 97.9611
RA_OF_ASC_NODE = 25.1455
ARG_OF_PERICENTER = 8.1947
MEAN_ANOMALY   = 352.3572

EPHEMERIS_TYPE = 0
CLASSIFICATION_TYPE = U
NORAD_CAT_ID   = 67235
ELEMENT_SET_NO = 999
REV_AT_EPOCH   = 294
BSTAR          = .59113359E-3
MEAN_MOTION_DOT = .292788E-2
MEAN_MOTION_DDOT = .2399346E-5

CCSDS_OMM_VERS = 2.0
CREATION_DATE  = 
ORIGINATOR     = 

OBJECT_NAME    = HULIANWANG DIGUI-128
OBJECT_ID      = 2025-311A
CENTER_NAME    = EARTH
REF_FRAME      = TEME
TIME_SYSTEM    = UTC
MEAN_ELEMENT_THEORY = SGP/SGP4

EPOCH          = 2026-01-14T21:58:30.123552
MEAN_MOTION    = 13.90210556
ECCENTRICITY   = .00065581
INCLINATION    = 50.0102
RA_OF_ASC_NODE = 316.2947
ARG_OF_PERICENTER = 343.9922
MEAN_ANOMALY   = 16.0768

EPHEMERIS_TYPE = 0
CLASSIFICATION_TYPE = U
NORAD_CAT_ID   = 67236
ELEMENT_SET_NO = 999
REV_AT_EPOCH   = 278
BSTAR          = .79128692E-4
MEAN_MOTION_DOT = -.48E-6
MEAN_MOTION_DDOT = 0

CCSDS_OMM_VERS = 2.0
CREATION_DATE  = 
ORIGINATOR     = 

OBJECT_NAME    = HULIANWANG DIGUI-129
OBJECT_ID      = 2025-311B
CENTER_NAME    = EARTH
REF_FRAME      = TEME
TIME_SYSTEM    = UTC
MEAN_ELEMENT_THEORY = SGP/SGP4

EPOCH          = 2026-01-14T22:00:20.118528
MEAN_MOTION    = 13.90166821
ECCENTRICITY   = .00078058
INCLINATION    = 50.0091
RA_OF_ASC_NODE = 316.2987
ARG_OF_PERICENTER = 345.5602
MEAN_ANOMALY   = 14.5072

EPHEMERIS_TYPE = 0
CLASSIFICATION_TYPE = U
NORAD_CAT_ID   = 67237
ELEMENT_SET_NO = 999
REV_AT_EPOCH   = 278
BSTAR          = .74839867E-4
MEAN_MOTION_DOT = -.53E-6
MEAN_MOTION_DDOT = 0

CCSDS_OMM_VERS = 2.0
CREATION_DATE  = 
ORIGINATOR     = 

OBJECT_NAME    = HULIANWANG DIGUI-130
OBJECT_ID      = 2025-311C
CENTER_NAME    = EARTH
REF_FRAME      = TEME
TIME_SYSTEM    = UTC
MEAN_ELEMENT_THEORY = SGP/SGP4

EPOCH          = 2026-01-14T22:09:55.164096
MEAN_MOTION    = 13.90218469
ECCENTRICITY   = .00077605
INCLINATION    = 50.0071
RA_OF_ASC_NODE = 316.3281
ARG_OF_PERICENTER = 323.0121
MEAN_ANOMALY   = 37.0241

EPHEMERIS_TYPE = 0
CLASSIFICATION_TYPE = U
NORAD_CAT_ID   = 67238
ELEMENT_SET_NO = 999
REV_AT_EPOCH   = 278
BSTAR          = .83900509E-4
MEAN_MOTION_DOT = -.42E-6
MEAN_MOTION_DDOT = 0

CCSDS_OMM_VERS = 2.0
CREATION_DATE  = 
ORIGINATOR     = 

OBJECT_NAME    = HULIANWANG DIGUI-131
OBJECT_ID      = 2025-311D
CENTER_NAME    = EARTH
REF_FRAME      = TEME
TIME_SYSTEM    = UTC
MEAN_ELEMENT_THEORY = SGP/SGP4

EPOCH          = 2026-01-14T22:14:23.469792
MEAN_MOTION    = 13.90205482
ECCENTRICITY   = .00093709
INCLINATION    = 50.0067
RA_OF_ASC_NODE = 316.3429
ARG_OF_PERICENTER = 330.3801
MEAN_ANOMALY   = 29.6566

EPHEMERIS_TYPE = 0
CLASSIFICATION_TYPE = U
NORAD_CAT_ID   = 67239
ELEMENT_SET_NO = 999
REV_AT_EPOCH   = 278
BSTAR          = .8019112E-4
MEAN_MOTION_DOT = -.46E-6
MEAN_MOTION_DDOT = 0

CCSDS_OMM_VERS = 2.0
CREATION_DATE  = 
ORIGINATOR     = 

OBJECT_NAME    = HULIANWANG DIGUI-132
OBJECT_ID      = 2025-311E
CENTER_NAME    = EARTH
REF_FRAME      = TEME
TIME_SYSTEM    = UTC
MEAN_ELEMENT_THEORY = SGP/SGP4

EPOCH          = 2026-01-14T22:05:29.501376
MEAN_MOTION    = 13.90231340
ECCENTRICITY   = .00084578
INCLINATION    = 50.0079
RA_OF_ASC_NODE = 316.3140
ARG_OF_PERICENTER = 337.0656
MEAN_ANOMALY   = 22.9864

EPHEMERIS_TYPE = 0
CLASSIFICATION_TYPE = U
NORAD_CAT_ID   = 67240
ELEMENT_SET_NO = 999
REV_AT_EPOCH   = 278
BSTAR          = .72325975E-4
MEAN_MOTION_DOT = -.56E-6
MEAN_MOTION_DDOT = 0

CCSDS_OMM_VERS = 2.0
CREATION_DATE  = 
ORIGINATOR     = 

OBJECT_NAME    = HULIANWANG DIGUI-133
OBJECT_ID      = 2025-311F
CENTER_NAME    = EARTH
REF_FRAME      = TEME
TIME_SYSTEM    = UTC
MEAN_ELEMENT_THEORY = SGP/SGP4

EPOCH          = 2026-01-14T23:46:22.647360
MEAN_MOTION    = 13.90209334
ECCENTRICITY   = .00075767
INCLINATION    = 50.0123
RA_OF_ASC_NODE = 316.0297
ARG_OF_PERICENTER = 341.4917
MEAN_ANOMALY   = 18.5705

EPHEMERIS_TYPE = 0
CLASSIFICATION_TYPE = U
NORAD_CAT_ID   = 67241
ELEMENT_SET_NO = 999
REV_AT_EPOCH   = 279
BSTAR          = .77718728E-4
MEAN_MOTION_DOT = -.49E-6
MEAN_MOTION_DDOT = 0

